     2.100          NAVIGATION                              RINEX VERSION / TYPE
fic2rin                                 10/29/2016 00:04:20 PGM / RUN BY / DATE
                                                            END OF HEADER
21 16 10 28 13 59 28.0 -.532877631485D-03  .102318153949D-11  .000000000000D+00
     .900000000000D+01  .171875000000D+01  .580738475803D-08  .574232359403D+00
     .163912773132D-06  .233714421047D-01  .408291816711D-05  .515379482269D+04
     .482368000000D+06 -.270083546638D-06  .132742213132D+01 -.372529029846D-08
     .937263915958D+00  .296062500000D+03 -.174693912296D+01 -.923038448256D-08
    -.660741808263D-10  .100000000000D+01  .192000000000D+04  .000000000000D+00
     .240000000000D+01  .000000000000D+00 -.977888703346D-08  .900000000000D+01
     .475206000000D+06  .400000000000D+01
 2 16 10 28 13 59 44.0  .533608719707D-03 -.534328137292D-11  .000000000000D+00
     .100000000000D+02  .175000000000D+01  .533700802209D-08  .269030491119D+01
    -.894069671631D-07  .160533007002D-01  .333786010742D-05  .515365624428D+04
     .482384000000D+06  .353902578354D-07  .131654936281D+01 -.214204192162D-06
     .943995888989D+00  .302593750000D+03 -.207312276038D+01 -.832034657583D-08
     .642883921553D-11  .100000000000D+01  .192000000000D+04  .000000000000D+00
     .240000000000D+01  .000000000000D+00 -.200234353542D-07  .100000000000D+02
     .475206000000D+06  .400000000000D+01
18 16 10 28 13 59 44.0  .571025535464D-03  .341060513165D-11  .000000000000D+00
     .470000000000D+02 -.475937500000D+02  .549165732100D-08 -.377592391279D+00
    -.245682895184D-05  .172679303214D-01  .953860580921D-05  .515372659874D+04
     .482384000000D+06 -.173225998878D-06  .236925754257D+01  .147148966789D-06
     .925216302813D+00  .180281250000D+03 -.185367110980D+01 -.882072456144D-08
    -.491091884520D-09  .100000000000D+01  .192000000000D+04  .000000000000D+00
     .240000000000D+01  .000000000000D+00 -.111758708954D-07  .470000000000D+02
     .475206000000D+06  .400000000000D+01
19 16 10 28 13 59 44.0 -.520995818079D-03  .682121026330D-12  .000000000000D+00
     .800000000000D+01  .423437500000D+02  .426089176896D-08  .118929886149D+01
     .230781733990D-05  .103595507098D-01  .996887683868D-05  .515363473129D+04
     .482384000000D+06 -.111758708954D-06  .406870560775D+00  .104308128357D-06
     .975332423722D+00  .197031250000D+03  .881453784340D+00 -.800176187693D-08
     .479305679291D-09  .100000000000D+01  .192000000000D+04  .000000000000D+00
     .240000000000D+01  .000000000000D+00 -.149011611938D-07  .800000000000D+01
     .475206000000D+06  .400000000000D+01
 1 16 10 28 14  0  0.0  .386605970562D-04  .125055521494D-11  .000000000000D+00
     .910000000000D+02 -.696875000000D+01  .498020744563D-08  .221983621201D+01
    -.372529029846D-06  .597233406734D-02  .399537384510D-05  .515369293022D+04
     .482400000000D+06 -.186264514923D-06  .136542061651D+01 -.465661287308D-07
     .965140029156D+00  .304687500000D+03  .565193955580D+00 -.830927468607D-08
     .928610108910D-11  .100000000000D+01  .192000000000D+04  .000000000000D+00
     .240000000000D+01  .000000000000D+00  .512227416039D-08  .910000000000D+02
     .475206000000D+06  .400000000000D+01
 3 16 10 28 14  0  0.0 -.949292443693D-04 -.216004991671D-11  .000000000000D+00
     .540000000000D+02 -.390937500000D+02  .450268755501D-08  .935009949797D+00
    -.204890966415D-05  .309379887767D-03  .104643404484D-04  .515359798431D+04
     .482400000000D+06  .558793544769D-07  .240763658981D+01  .353902578354D-07
     .959531406049D+00  .175062500000D+03  .741854869050D+00 -.799211861811D-08
    -.516807241382D-09  .100000000000D+01  .192000000000D+04  .000000000000D+00
     .240000000000D+01  .000000000000D+00  .186264514923D-08  .540000000000D+02
     .475206000000D+06  .400000000000D+01
 4 16 10 28 14  0  0.0  .118622556329D-04  .306954461848D-11  .000000000000D+00
     .310000000000D+02  .871250000000D+02  .427196365872D-08 -.493496295164D+00
     .459142029285D-05  .839160906617D-02  .898726284504D-05  .515359768295D+04
     .482400000000D+06 -.169500708580D-06 -.271644946920D+01 -.987201929092D-07
     .966516731621D+00  .212500000000D+03 -.983234150438D+00 -.806819321549D-08
     .383944564261D-09  .100000000000D+01  .192000000000D+04  .000000000000D+00
     .340000000000D+01  .630000000000D+02 -.419095158577D-08  .310000000000D+02
     .475206000000D+06  .400000000000D+01
 5 16 10 28 14  0  0.0 -.816504471004D-04  .238742359215D-11  .000000000000D+00
     .890000000000D+02 -.545937500000D+02  .477305595980D-08 -.112412404851D+01
    -.282377004623D-05  .486027519219D-02  .100731849670D-04  .515362600708D+04
     .482400000000D+06  .119209289551D-06  .239367489757D+01 -.391155481339D-07
     .946539230587D+00  .177656250000D+03  .540328538030D+00 -.813426739632D-08
    -.534307970357D-09  .100000000000D+01  .192000000000D+04  .000000000000D+00
     .240000000000D+01  .000000000000D+00 -.107102096081D-07  .890000000000D+02
     .475206000000D+06  .400000000000D+01
 6 16 10 28 14  0  0.0  .265560112894D-03  .500222085975D-11  .000000000000D+00
     .760000000000D+02 -.543750000000D+01  .500342269835D-08  .287793011917D+01
    -.162050127983D-06  .220764311962D-03  .381283462048D-05  .515378352356D+04
     .482400000000D+06  .149011611938D-07  .135702114508D+01 -.372529029846D-07
     .964948808208D+00  .306250000000D+03 -.174765472250D+01 -.838142054838D-08
    -.253581991279D-10  .100000000000D+01  .192000000000D+04  .000000000000D+00
     .240000000000D+01  .000000000000D+00  .419095158577D-08  .760000000000D+02
     .475206000000D+06  .400000000000D+01
 7 16 10 28 14  0  0.0  .415696296841D-03 -.318323145621D-11  .000000000000D+00
     .530000000000D+02 -.121875000000D+01  .481948646524D-08  .156788647155D+01
    -.242143869400D-07  .100486810552D-01  .274553894997D-05  .515361865807D+04
     .482400000000D+06 -.154599547386D-06 -.175933276597D+01  .100582838058D-06
     .964387227605D+00  .331000000000D+03 -.261765097048D+01 -.850428280894D-08
    -.147863301957D-09  .100000000000D+01  .192000000000D+04  .000000000000D+00
     .240000000000D+01  .000000000000D+00 -.111758708954D-07  .530000000000D+02
     .475206000000D+06  .400000000000D+01
 8 16 10 28 14  0  0.0 -.369860790670D-04 -.136424205266D-11  .000000000000D+00
     .900000000000D+02  .486250000000D+02  .441304096373D-08 -.113531093039D+01
     .239536166191D-05  .188785954379D-02  .101793557405D-04  .515377099991D+04
     .482400000000D+06 -.409781932831D-07  .303862955626D+00  .335276126862D-07
     .965060509318D+00  .189062500000D+03 -.101451078745D+01 -.794925969000D-08
     .541093967307D-09  .100000000000D+01  .192000000000D+04  .000000000000D+00
     .240000000000D+01  .000000000000D+00  .512227416039D-08  .900000000000D+02
     .475206000000D+06  .400000000000D+01
 9 16 10 28 14  0  0.0  .233727972955D-03  .727595761418D-11  .000000000000D+00
     .410000000000D+02  .925000000000D+02  .456590447396D-08 -.177269833225D+01
     .465288758278D-05  .639083678834D-03  .951439142227D-05  .515376257133D+04
     .482400000000D+06 -.186264514923D-08 -.283794790244D+01  .353902578354D-07
     .954799435138D+00  .192406250000D+03  .182799175828D+01 -.811783814054D-08
     .253581991279D-09  .100000000000D+01  .192000000000D+04  .000000000000D+00
     .240000000000D+01  .000000000000D+00  .139698386192D-08  .410000000000D+02
     .475206000000D+06  .400000000000D+01
10 16 10 28 14  0  0.0 -.111035536975D-03 -.250111042988D-11  .000000000000D+00
     .102000000000D+03 -.452500000000D+02  .448804408791D-08  .157421202985D+00
    -.253506004810D-05  .182874489110D-02  .979378819466D-05  .515368435669D+04
     .482400000000D+06 -.298023223877D-07  .240376348347D+01  .204890966415D-07
     .959736707583D+00  .188812500000D+03 -.291815146010D+01 -.802926302246D-08
    -.572166690182D-09  .100000000000D+01  .192000000000D+04  .000000000000D+00
     .240000000000D+01  .000000000000D+00  .232830643654D-08  .102000000000D+03
     .475206000000D+06  .400000000000D+01
11 16 10 28 14  0  0.0 -.668349210173D-03 -.250111042988D-11  .000000000000D+00
     .630000000000D+02  .349062500000D+02  .644455415583D-08  .165650174820D+01
     .150129199028D-05  .168027313193D-01  .388734042645D-05  .515367590714D+04
     .482400000000D+06  .147148966789D-06  .977454882325D+00 -.439584255219D-06
     .898138654691D+00  .268937500000D+03  .159241913083D+01 -.899501753573D-08
     .361800784741D-09  .100000000000D+01  .192000000000D+04  .000000000000D+00
     .485000000000D+01  .000000000000D+00 -.121071934700D-07  .630000000000D+02
     .475206000000D+06  .400000000000D+01
12 16 10 28 14  0  0.0  .389405060560D-03  .113686837722D-12  .000000000000D+00
     .530000000000D+02 -.809687500000D+02  .370336854588D-08  .975901684645D+00
    -.439025461674D-05  .605776812881D-02  .986456871033D-05  .515364099312D+04
     .482400000000D+06 -.856816768646D-07 -.679407627323D+00  .260770320892D-07
     .990123836278D+00  .205406250000D+03  .783856610546D+00 -.771603568957D-08
    -.302512600864D-09  .100000000000D+01  .192000000000D+04  .000000000000D+00
     .240000000000D+01  .000000000000D+00 -.125728547573D-07  .530000000000D+02
     .475206000000D+06  .400000000000D+01
13 16 10 28 14  0  0.0 -.518318265676D-04 -.204636307899D-11  .000000000000D+00
     .580000000000D+02  .921875000000D+02  .411445709794D-08  .258594656013D+01
     .487454235554D-05  .401113543194D-02  .900030136108D-05  .515369268227D+04
     .482400000000D+06  .260770320892D-07 -.271494749706D+01  .260770320892D-07
     .970995069111D+00  .210687500000D+03  .191464692804D+01 -.784246952748D-08
     .318584698903D-09  .100000000000D+01  .192000000000D+04  .000000000000D+00
     .240000000000D+01  .000000000000D+00 -.111758708954D-07  .580000000000D+02
     .475206000000D+06  .400000000000D+01
